1 28654U 05018A   15245.50098936  .00000057  00000-0  56227-4 0  9994,2 28654  99.1892 240.0489 0015338 102.8802 257.4083 14.12230099529986
1 28654U 05018A   15245.92608380 +.00000063 +00000-0 +59556-4 0  9995,2 28654 099.1892 240.4846 0015340 101.7652 258.5240 14.12230171529956
1 28654U 05018A   15246.49287636  .00000069  00000-0  62652-4 0  9992,2 28654  99.1893 241.0655 0015351 100.2804 260.0098 14.12230265530121
1 28654U 05018A   15246.91797067 +.00000078 +00000-0 +67581-4 0  9999,2 28654 099.1893 241.5012 0015350 099.1695 261.1213 14.12230362530091
1 28654U 05018A   15247.55561210  .00000074  00000-0  65464-4 0  9993,2 28654  99.1894 242.1548 0015358  97.5179 262.7737 14.12230457530273
1 28654U 05018A   15247.90985730 +.00000069 +00000-0 +62742-4 0  9999,2 28654 099.1894 242.5179 0015356 096.5992 263.6928 14.12230493530235
1 28654U 05018A   15248.47664955  .00000064  00000-0  60279-4 0  9993,2 28654  99.1895 243.0989 0015363  95.1529 265.1396 14.12230606530401
1 28654U 05018A   15248.90174369 +.00000061 +00000-0 +58405-4 0  9991,2 28654 099.1895 243.5346 0015356 094.0252 266.2675 14.12230673530378
1 28654U 05018A   15249.46853581  .00000050  00000-0  52592-4 0  9992,2 28654  99.1896 244.1155 0015362  92.5725 267.7204 14.12230794530546
1 28654U 05018A   15249.96447884 +.00000045 +00000-0 +49917-4 0  9993,2 28654 099.1896 244.6239 0015355 091.2760 269.0170 14.12230889530521
1 28654U 05018A   15250.46042184  .00000042  00000-0  47978-4 0  9996,2 28654  99.1897 245.1322 0015357  89.9926 270.3004 14.12231018530684
1 28654U 05018A   15250.88551575 +.00000047 +00000-0 +50990-4 0  9994,2 28654 099.1897 245.5679 0015354 088.8785 271.4145 14.12231160530654
1 28654U 05018A   15251.52315656  .00000056  00000-0  55948-4 0  9992,2 28654  99.1897 246.2215 0015354  87.2135 273.0793 14.12231396530838
1 28654U 05018A   15251.94825042 +.00000053 +00000-0 +54090-4 0  9997,2 28654 099.1898 246.6572 0015352 086.0863 274.2063 14.12231477530802
1 28654U 05018A   15252.51504216  .00000050  00000-0  52633-4 0  9996,2 28654  99.1898 247.2382 0015357  84.6289 275.6633 14.12231604530977
1 28654U 05018A   15252.94013594 +.00000049 +00000-0 +51756-4 0  9990,2 28654 099.1898 247.6739 0015359 083.5230 276.7689 14.12231682530949
1 28654U 05018A   15253.50692752  .00000069  00000-0  62897-4 0  9992,2 28654  99.1898 248.2549 0015365  82.0453 278.2461 14.12231894531113
1 28654U 05018A   15253.93202117  .00000066  00000-0  61426-4 0  9995,2 28654  99.1899 248.6906 0015359  80.9352 279.3556 14.12231935531172
1 28654U 05018A   15254.49881264  .00000075  00000-0  66033-4 0  9992,2 28654  99.1899 249.2716 0015362  79.4663 280.8237 14.12232062531254
1 28654U 05018A   15254.92390615  .00000085  00000-0  71840-4 0  9998,2 28654  99.1899 249.7073 0015356  78.3590 281.9303 14.12232190531310
1 28654U 05018A   15254.92390615  .00000085  00000-0  71840-4 0  9998,2 28654  99.1899 249.7073 0015356  78.3590 281.9303 14.12232190531310
1 28654U 05018A   15254.92390615 +.00000085 +00000-0 +71840-4 0  9998,2 28654 099.1899 249.7073 0015356 078.3590 281.9303 14.12232190531220
1 28654U 05018A   15255.49069749  .00000083  00000-0  70309-4 0  9999,2 28654  99.1900 250.2883 0015352  76.8421 283.4461 14.12232272531392
1 28654U 05018A   15255.91579090 +.00000075 +00000-0 +66164-4 0  9996,2 28654 099.1899 250.7240 0015344 075.7227 284.5647 14.12232322531365
1 28654U 05018A   15256.48258208  .00000061  00000-0  58663-4 0  9994,2 28654  99.1900 251.3050 0015336  74.2640 286.0221 14.12232380531536
1 28654U 05018A   15256.90767536 +.00000060 +00000-0 +58075-4 0  9996,2 28654 099.1900 251.7407 0015326 073.1091 287.1759 14.12232485531504
1 28654U 05018A   15257.54531524  .00000049  00000-0  51939-4 0  9992,2 28654  99.1901 252.3943 0015313  71.4487 288.8346 14.12232603531684
1 28654U 05018A   15257.97040841 +.00000044 +00000-0 +49204-4 0  9993,2 28654 099.1901 252.8300 0015298 070.3380 289.9439 14.12232701531659
1 28654U 05018A   15258.46635045  .00000038  00000-0  46131-4 0  9993,2 28654  99.1902 253.3384 0015292  69.0436 291.2369 14.12232825531812
1 28654U 05018A   15258.96229243 +.00000029 +00000-0 +41249-4 0  9992,2 28654 099.1902 253.8467 0015276 067.7293 292.5496 14.12232912531796
1 28654U 05018A   15259.45823441  .00000016  00000-0  33974-4 0  9999,2 28654  99.1903 254.3551 0015267  66.4505 293.8268 14.12232990531954
1 28654U 05018A   15259.95417632 +.00000015 +00000-0 +33653-4 0  9998,2 28654 099.1903 254.8634 0015257 065.1303 295.1452 14.12233092531934
1 28654U 05018A   15260.52096704  .00000018  00000-0  35045-4 0  9996,2 28654  99.1904 255.4444 0015248  63.6562 296.6173 14.12233234532105
1 28654U 05018A   15260.94606002 +.00000026 +00000-0 +39434-4 0  9995,2 28654 099.1905 255.8801 0015238 062.5450 297.7268 14.12233341532072
1 28654U 05018A   15261.51285067  .00000038  00000-0  46245-4 0  9994,2 28654  99.1905 256.4611 0015230  61.0569 299.2127 14.12233485532244
1 28654U 05018A   15261.93794359 +.00000048 +00000-0 +51336-4 0  9997,2 28654 099.1906 256.8969 0015221 059.9200 300.3477 14.12233582532210
1 28654U 05018A   15262.50473414  .00000065  00000-0  60720-4 0  9993,2 28654  99.1906 257.4779 0015215  58.4264 301.8389 14.12233729532382
1 28654U 05018A   15262.92982700 +.00000070 +00000-0 +63430-4 0  9999,2 28654 099.1907 257.9137 0015204 057.3036 302.9599 14.12233782532350
1 28654U 05018A   15263.49661741  .00000085  00000-0  71328-4 0  9992,2 28654  99.1907 258.4947 0015194  55.8254 304.4355 14.12233926532524
1 28654U 05018A   15263.92171013 +.00000083 +00000-0 +70765-4 0  9990,2 28654 099.1907 258.9305 0015178 054.6996 305.5591 14.12233967532494
1 28654U 05018A   15264.48850041  .00000086  00000-0  72107-4 0  9992,2 28654  99.1908 259.5115 0015164  53.1954 307.0606 14.12234061532663
1 28654U 05018A   15264.91359302 +.00000085 +00000-0 +71370-4 0  9994,2 28654 099.1908 259.9472 0015149 052.0441 308.2096 14.12234130532635
1 28654U 05018A   15265.55123187  .00000081  00000-0  69422-4 0  9996,2 28654  99.1908 260.6009 0015128  50.3618 309.8885 14.12234259532819
1 28654U 05018A   15265.90547562 +.00000077 +00000-0 +67454-4 0  9990,2 28654 099.1908 260.9640 0015113 049.4027 310.8456 14.12234332532773
1 28654U 05018A   15266.54311432  .00000066  00000-0  61209-4 0  9996,2 28654  99.1909 261.6176 0015087  47.7113 312.5333 14.12234461532959
1 28654U 05018A   15266.96820669 +.00000062 +00000-0 +59239-4 0  9995,2 28654 099.1909 262.0534 0015068 046.5640 313.6782 14.12234577532928
1 28654U 05018A   15267.53499650  .00000060  00000-0  57961-4 0  9999,2 28654  99.1909 262.6344 0015047  45.0614 315.1775 14.12234751533097
1 28654U 05018A   15267.96008881 +.00000058 +00000-0 +56842-4 0  9992,2 28654 099.1909 263.0701 0015031 043.9124 316.3238 14.12234871533062
1 28654U 05018A   15268.45602979  .00000055  00000-0  55255-4 0  9999,2 28654  99.1910 263.5785 0015010  42.6220 317.6112 14.12235029533220
1 28654U 05018A   15268.95197072 +.00000059 +00000-0 +57466-4 0  9997,2 28654 099.1910 264.0869 0014995 041.2844 318.9457 14.12235190533200
1 28654U 05018A   15269.51876032  .00000056  00000-0  55935-4 0  9996,2 28654  99.1911 264.6679 0014976  39.8046 320.4221 14.12235327533379
1 28654U 05018A   15269.94385246 +.00000059 +00000-0 +57430-4 0  9990,2 28654 099.1911 265.1037 0014962 038.6665 321.5574 14.12235440533348
1 28654U 05018A   15270.51064199  .00000060  00000-0  57776-4 0  9991,2 28654  99.1912 265.6847 0014944  37.1710 323.0492 14.12235557533512
1 28654U 05018A   15270.93573404 +.00000067 +00000-0 +61669-4 0  9994,2 28654 099.1912 266.1205 0014929 036.0193 324.1981 14.12235666533484
1 28654U 05018A   15270.93573404 +.00000067 +00000-0 +61669-4 0  9994,2 28654 099.1912 266.1205 0014929 036.0193 324.1981 14.12235666533484
1 28654U 05018A   15271.50252344  .00000071  00000-0  64286-4 0  9998,2 28654  99.1912 266.7016 0014912  34.4948 325.7187 14.12235773533655
1 28654U 05018A   15271.92761542 +.00000079 +00000-0 +68268-4 0  9991,2 28654 099.1912 267.1374 0014893 033.3355 326.8751 14.12235868533626
1 28654U 05018A   15272.49440472  .00000073  00000-0  65219-4 0  9997,2 28654  99.1912 267.7184 0014872  31.8354 328.3713 14.12235934533797
1 28654U 05018A   15272.91949659 +.00000076 +00000-0 +66837-4 0  9995,2 28654 099.1912 268.1542 0014855 030.6552 329.5484 14.12236020533760
1 28654U 05018A   15273.48628571  .00000082  00000-0  70102-4 0  9992,2 28654  99.1913 268.7353 0014830  29.1451 331.0544 14.12236176533937
1 28654U 05018A   15273.91137751 +.00000075 +00000-0 +65985-4 0  9990,2 28654 099.1913 269.1710 0014807 027.9962 332.2002 14.12236235533901
1 28654U 05018A   15274.40731791  .00000068  00000-0  62464-4 0  9990,2 28654  99.1914 269.6794 0014782  26.6626 333.5302 14.12236331534066
1 28654U 05018A   15274.90325819 +.00000070 +00000-0 +63314-4 0  9993,2 28654 099.1914 270.1878 0014758 025.2909 334.8981 14.12236478534045
1 28654U 05018A   15275.47004712  .00000063  00000-0  59739-4 0  9990,2 28654  99.1915 270.7689 0014733  23.7271 336.4576 14.12236607534211
1 28654U 05018A   15275.47004712  .00000063  00000-0  59739-4 0  9990,2 28654  99.1915 270.7689 0014733  23.7271 336.4576 14.12236607534211
1 28654U 05018A   15275.96598738 +.00000048 +00000-0 +51705-4 0  9998,2 28654 099.1915 271.2773 0014712 022.3595 337.8214 14.12236669534191
1 28654U 05018A   15276.53277625  .00000038  00000-0  45996-4 0  9995,2 28654  99.1916 271.8583 0014687  20.8171 339.3595 14.12236772534364
1 28654U 05018A   15276.95786784 +.00000037 +00000-0 +45809-4 0  9994,2 28654 099.1916 272.2941 0014665 019.6541 340.5192 14.12236865534337
1 28654U 05018A   15277.45380801  .00000040  00000-0  47154-4 0  9999,2 28654  99.1917 272.8025 0014642  18.3098 341.8597 14.12236992534496
1 28654U 05018A   15277.45380801  .00000040  00000-0  47154-4 0  9999,2 28654  99.1917 272.8025 0014642  18.3098 341.8597 14.12236992534496
1 28654U 05018A   15277.94974815 +.00000039 +00000-0 +46740-4 0  9995,2 28654 099.1917 273.3109 0014625 016.9405 343.2251 14.12237078534479
